#cP2018  7 18  0  0  0.00000000      96 TRACK IGb14 FIT GRGS
## 2010 259200.00000000   900.00000000 58317 0.0000000000000
+   73   E01E02E03E04E05E07E08E09E11E12E14E18E19E21E24E25E26
+        E27E30E31R01R02R03R04R05R07R08R09R10R11R13R14R15R16
+        R17R18R19R20R21R22R23R24G01G02G03G05G06G07G08G09G10
+        G11G12G13G14G15G16G17G19G20G21G22G23G24G25G26G27G28
+        G29G30G31G32G18  0  0  0  0  0  0  0  0  0  0  0  0
++         6  5  6  6  7  6  6  7  6  7  7  5  5  7  8  6  6
++         6  7  7  6  5  6  5  9  5  5  6  7  6  6  6  6  6
++         5  6  6  6  5  5  6  6  5  5  5  5  5  4  4  5  5
++         5  6  4  5  4  4  4  4  5  5  5  4  5  5  4  4  5
++         4  5  5  4  5  0  0  0  0  0  0  0  0  0  0  0  0
%c M  cc GPS ccc cccc cccc cccc cccc ccccc ccccc ccccc ccccc
%c cc cc ccc ccc cccc cccc cccc cccc ccccc ccccc ccccc ccccc
%f  0.0000000  0.000000000  0.00000000000  0.000000000000000
%f  0.0000000  0.000000000  0.00000000000  0.000000000000000
%i    0    0    0    0      0      0      0      0         0
%i    0    0    0    0      0      0      0      0         0
/* CNES/CLS/GRGS - TOULOUSE,FRANCE - Contact : igs-ac@cls.fr
/* PCV:IGS14_2000 OL/AL:FES2012  NONE     NN ORB:CoN CLK:CoN
/* CCCCCCCCCCCCCCCCCCCCCCCCCCCCCCCCCCCCCCCCCCCCCCCCCCCCCCCCC
/* CCCCCCCCCCCCCCCCCCCCCCCCCCCCCCCCCCCCCCCCCCCCCCCCCCCCCCCCC
*  2018  7 18  0 45  0.00000000
PE01 -18655.884699  13909.256851  18285.386006   -392.954567
PE02  18641.044127 -13920.085418 -18303.488695     19.926108
PE03   7960.535536 -16924.010373  22950.227913    -55.582301
PE04   8980.654893  25962.693831 -11008.219872    -77.404898
PE05  20282.770466   2062.854222  21470.279179    227.017435
PE07 -20699.360820 -19804.945989  -7415.563845     -3.902284
PE08  -9252.189574 -25838.337513  11084.815122   6542.033248
PE09  20862.279462  19649.544934   7450.691744   6732.050843
PE11  12452.860494  11868.583509 -24094.095238   2559.568858
PE12  -1938.231310  26421.896178 -13184.357876   4624.806712
PE14 -11259.722082  13101.899348  15892.826335   6549.713809
PE18  17293.363171 -14914.764469 -23166.641638   6051.505648
PE19  -9290.129347  15367.212640 -23519.418007    -14.028964
PE21 -29393.687817   3391.401831    457.520955   -211.781322
PE24  22939.363011   8658.123323  16569.498892   6595.460889
PE25  29411.610422  -3384.054498   -443.054246   2098.379610
PE26 -19245.772876   8932.673549  20637.757072   5697.906929
PE27 -22357.274980  -8948.594859 -17201.563340    670.376801
PE30  -3049.293531 -15998.954900 -24724.155693   5669.889320
PE31   2248.485679  16041.196092  24780.857791   1084.629548
PR01   7431.806841  17922.169624 -16561.809587     29.216329
PR02  18932.535780  16940.774073   2029.562874    320.198373
PR03  17677.163769   5323.876588  17626.750159    137.962189
PR04   5703.226926  -9678.525455  22923.395743    268.919099
PR05  -9370.052915 -18535.946628  14799.251613    -41.705375
PR07 -17523.453585  -5083.038910 -17802.635938    -42.654324
PR08  -6263.318127   9144.633970 -22917.093366     22.234853
PR09 -16989.015034  -4523.557450 -18436.423138     18.624958
PR10 -24663.743478   4818.253306  -4112.317245     28.088162
PR11 -18102.750274  11790.449125  13534.553117    -34.913213
PR13  16941.164741   4077.769472  18618.392298    -12.612602
PR14  24697.950468  -4853.075978   4220.490538     29.156397
PR15  20934.762580 -10542.662720  -9941.794738    -13.314641
PR16   1708.357678 -11759.339645 -22578.706200     97.197474
PR17  11739.204629  -4665.240252 -22151.648464    148.732795
PR18  10556.403465 -20186.365442 -11532.311095    203.333406
PR19   4077.258275 -24527.201395   5690.300866    -56.626130
PR20  -5777.696229 -13954.393600  20571.214236   -345.504082
PR21 -11719.101842   5156.928339  22060.797985      6.665542
PR22 -10005.706912  21310.453988   9656.296715    -55.980337
PR23  -1546.648171  23588.274682  -9596.531832    166.374436
PR24   6573.151135  12835.451692 -21067.328886   -169.011909
PG01 -10654.391175  20887.557321 -12333.993217    -66.835911
PG02  21017.314102 -14010.673884  -7251.003590     54.875023
PG03  -1847.569236  15289.095816 -21668.809477    107.324652
PG05  21665.783644  -4594.077223  14710.763384     -4.457606
PG06  18876.185298     13.917216 -18666.171263    386.100525
PG07   4455.654559  15764.510228  21043.938289    157.175305
PG08  -7273.006601  19331.511002  16653.762542   -108.521958
PG09   7701.796393  25280.266442   2558.102676    513.501846
PG10 -23760.057075 -11071.827527   4836.304673    188.707233
PG11  -8157.862311  25233.440570  -3232.302849   -729.563004
PG12   7548.610332 -12808.561502 -22188.594281    320.282968
PG13  12785.214329 -11596.388446  20078.581323    -92.293682
PG14 -15376.716782  -4632.009572 -20882.104668    -97.632732
PG15   4455.815770 -21667.207823  14199.572820   -350.543325
PG16 -22403.669174   1026.517720  14390.303320     17.354407
PG17  13804.965221  14892.732623 -16796.570233    -77.132055
PG19  15112.051930   5079.013001 -21513.920122   -419.533948
PG20 -17991.987068 -13994.636803  13589.101586    512.575551
PG21  -8706.203802 -13657.295774  21856.008118   -366.024373
PG22 -10934.433275  12923.513968 -20222.133901   -461.030949
PG23     40.055936  25073.446183  -7787.316803   -214.325118
PG24  12976.114819 -21461.880952  -8400.793674    -52.696415
PG25  -8587.365000 -16507.865994 -19223.755173   -617.702199
PG26 -25849.308649  -4067.410493   4945.008567    -80.513426
PG27 -13228.695588   7658.151451  21605.881448    360.333642
PG28  21036.372186  14454.418026   7865.132478    731.949891
PG29  -4644.319778 -26137.942051    923.424105    412.905378
PG30  13744.648884   8510.054734  21111.469889     49.276838
PG31 -20276.014792   1516.855336 -17271.878817    107.018475
PG32 -15226.283559 -13934.385239 -16723.510070   -472.897174
PG18 -16326.176603  20474.257520  -4291.013991     34.880236
EOF
